[{"OBJECT_NAME":"STARLINK-32933","OBJECT_ID":"2025-037F","EPOCH":"2026-03-09T21:39:59.933664","MEAN_MOTION":14.96392117,"ECCENTRICITY":0.00092861,"INCLINATION":70.0032,"RA_OF_ASC_NODE":353.9289,"ARG_OF_PERICENTER":34.0128,"MEAN_ANOMALY":326.1623,"EPHEMERIS_TYPE":0,"CLASSIFICATION_TYPE":"U","NORAD_CAT_ID":63082,"ELEMENT_SET_NO":999,"REV_AT_EPOCH":5857,"BSTAR":-0.11736872,"MEAN_MOTION_DOT":-0.01234595,"MEAN_MOTION_DDOT":0},{"OBJECT_NAME":"CZ-6A DEB","OBJECT_ID":"2022-151UM","EPOCH":"2026-03-09T15:34:36.039072","MEAN_MOTION":14.72839437,"ECCENTRICITY":0.00692827,"INCLINATION":98.6144,"RA_OF_ASC_NODE":129.596,"ARG_OF_PERICENTER":220.6178,"MEAN_ANOMALY":138.9848,"EPHEMERIS_TYPE":0,"CLASSIFICATION_TYPE":"U","NORAD_CAT_ID":54996,"ELEMENT_SET_NO":999,"REV_AT_EPOCH":17474,"BSTAR":0.0025807014,"MEAN_MOTION_DOT":0.00017132,"MEAN_MOTION_DDOT":0}]
